NEE-02 KRYSAOR          
1 39441U 13066AB  26068.37805844  .00004234  00000+0  46919-3 0  9992
2 39441  97.8816   8.3817 0067760  38.0821 322.5155 14.86160783661377
ICEYE-X44               
1 62707U 25009DC  26068.80692969  .00003886  00000+0  35708-3 0  9999
2 62707  97.7094 149.5360 0002423 102.1776 257.9717 14.95383166 85088
