[{"OBJECT_NAME":"NEE-02 KRYSAOR","OBJECT_ID":"2013-066AB","EPOCH":"2026-03-09T09:04:24.249216","MEAN_MOTION":14.86160783,"ECCENTRICITY":0.006776,"INCLINATION":97.8816,"RA_OF_ASC_NODE":8.3817,"ARG_OF_PERICENTER":38.0821,"MEAN_ANOMALY":322.5155,"EPHEMERIS_TYPE":0,"CLASSIFICATION_TYPE":"U","NORAD_CAT_ID":39441,"ELEMENT_SET_NO":999,"REV_AT_EPOCH":66137,"BSTAR":0.00046918892,"MEAN_MOTION_DOT":4.234e-5,"MEAN_MOTION_DDOT":0},{"OBJECT_NAME":"ICEYE-X44","OBJECT_ID":"2025-009DC","EPOCH":"2026-03-09T19:21:58.725216","MEAN_MOTION":14.95383166,"ECCENTRICITY":0.00024229,"INCLINATION":97.7094,"RA_OF_ASC_NODE":149.536,"ARG_OF_PERICENTER":102.1776,"MEAN_ANOMALY":257.9717,"EPHEMERIS_TYPE":0,"CLASSIFICATION_TYPE":"U","NORAD_CAT_ID":62707,"ELEMENT_SET_NO":999,"REV_AT_EPOCH":8508,"BSTAR":0.00035707542,"MEAN_MOTION_DOT":3.886e-5,"MEAN_MOTION_DDOT":0}]
